NOAA 15                 
1 25338U 98030A   23186.32551328  .00000222  00000+0  11061-3 0  9997
2 25338  98.6045 215.0712 0009149 259.4750 100.5399 14.26346333307842
DMSP 5D-3 F15 (USA 147) 
1 25991U 99067A   23185.65914336  .00000148  00000+0  97194-4 0  9999
2 25991  99.0696 189.2764 0009987 179.0310 291.7749 14.16755771217900
DMSP 5D-3 F16 (USA 172) 
1 28054U 03048A   23186.42842813  .00000034  00000+0  42028-4 0  9992
2 28054  99.0116 184.8094 0006620 323.1172 181.2267 14.13821504 17132
NOAA 18                 
1 28654U 05018A   23186.47758871  .00000219  00000+0  14120-3 0  9998
2 28654  98.9094 260.7794 0013561 332.1478  27.8966 14.12964091934152
METEOSAT-9 (MSG-2)      
1 28912U 05049B   23186.21803431  .00000123  00000+0  00000+0 0  9996
2 28912   6.8865  63.6411 0001672 158.7639 184.7133  1.00271610 64266
EWS-G1 (GOES 13)        
1 29155U 06018A   23172.81756907  .00000043  00000+0  00000+0 0  9990
2 29155   1.5416  91.7221 0002821  86.8158  86.8398  1.00274805 32433
DMSP 5D-3 F17 (USA 191) 
1 29522U 06050A   23186.34425575  .00000047  00000+0  47218-4 0  9992
2 29522  98.7526 198.9847 0008826 249.2253 110.7975 14.14261574860027
FENGYUN 3A              
1 32958U 08026A   23186.33458375  .00000126  00000+0  80528-4 0  9996
2 32958  98.5558 139.5054 0008845   4.9697 355.1565 14.18885379782636
FENGYUN 2E              
1 33463U 08066A   23186.47117310 -.00000209  00000+0  00000+0 0  9993
2 33463   6.7607  62.8773 0000278 331.5657 144.9989  1.00276916 53281
NOAA 19                 
1 33591U 09005A   23186.38274164  .00000188  00000+0  12581-3 0  9996
2 33591  99.0983 232.5994 0013785 187.5440 172.5526 14.12781091742519
GOES 14                 
1 35491U 09033A   23185.50904503 -.00000062  00000+0  00000+0 0  9999
2 35491   0.3762 103.9583 0005883 337.0578 275.8687  1.00271473 51349
DMSP 5D-3 F18 (USA 210) 
1 35951U 09057A   23186.39167785  .00000273  00000+0  16691-3 0  9997
2 35951  98.7678 162.3929 0012374  77.7600 282.4957 14.13792736707213
GOES 15                 
1 36411U 10008A   23185.62960779  .00000059  00000+0  00000+0 0  9991
2 36411   0.3996  95.6173 0001251  44.7087 196.7575  0.99983020 48837
COMS 1                  
1 36744U 10032A   23185.94771863 -.00000344  00000+0  00000+0 0  9994
2 36744   2.0428  88.5247 0001131  25.8052 277.6716  1.00269879 47845
FENGYUN 3B              
1 37214U 10059A   23186.39319057  .00000078  00000+0  65007-4 0  9995
2 37214  99.0829 204.0705 0022130 357.7624 119.0812 14.14352790655088
SUOMI NPP               
1 37849U 11061A   23186.37420440  .00000078  00000+0  57449-4 0  9991
2 37849  98.7046 124.7833 0000967 105.8638  52.9745 14.19543602605512
FENGYUN 2F              
1 38049U 12002A   23185.65785420 -.00000357  00000+0  00000+0 0  9999
2 38049   4.7298  76.5274 0004457  82.3149 112.4004  1.00264463 42075
METEOSAT-10 (MSG-3)     
1 38552U 12035B   23186.35199199 -.00000012  00000+0  00000+0 0  9992
2 38552   2.2106  56.1479 0000760  19.3245 333.8409  1.00270095 40407
METOP-B                 
1 38771U 12049A   23186.42206019  .00000125  00000+0  76799-4 0  9995
2 38771  98.6776 245.4913 0001076  83.0471 101.4976 14.21506551560139
FENGYUN 3C              
1 39260U 13052A   23186.40223843  .00000072  00000+0  57101-4 0  9993
2 39260  98.4276 199.5566 0009897 248.3077 111.7045 14.16050726506106
METEOR-M 2              
1 40069U 14037A   23186.36957206  .00000066  00000+0  49669-4 0  9991
2 40069  98.4230 191.4997 0004513 295.5699  64.5012 14.20789677466235
HIMAWARI-8              
1 40267U 14060A   23186.33314282 -.00000276  00000+0  00000+0 0  9990
2 40267   0.0282 295.1744 0001170 183.1195  65.3491  1.00270472 32053
FENGYUN 2G              
1 40367U 14090A   23186.01367625 -.00000303  00000+0  00000+0 0  9999
2 40367   2.9004  85.4864 0001467  62.6078 238.9836  1.00279516 31227
METEOSAT-11 (MSG-4)     
1 40732U 15034A   23186.28240365  .00000063  00000+0  00000+0 0  9996
2 40732   0.6229  44.9147 0000513  42.3192 306.6989  1.00275904 29208
ELEKTRO-L 2             
1 41105U 15074A   23185.38174265 -.00000116  00000+0  00000+0 0  9990
2 41105   3.9516  83.6521 0001571  80.5830 240.8081  1.00270265 27690
HIMAWARI-9              
1 41836U 16064A   23185.67010066 -.00000272  00000+0  00000+0 0  9994
2 41836   0.0146 324.2508 0001683 168.2835 171.8687  1.00270775 24485
GOES 16                 
1 41866U 16071A   23185.47719677 -.00000245  00000+0  00000+0 0  9997
2 41866   0.0197 202.1675 0000558 272.1560 264.4918  1.00271333 24288
FENGYUN 4A              
1 41882U 16077A   23186.01472223 -.00000329  00000+0  00000+0 0  9998
2 41882   0.0436  38.2224 0003510 112.0871 242.4295  1.00268953 24174
CYGFM05                 
1 41884U 16078A   23185.82255789  .00004685  00000+0  21057-3 0  9992
2 41884  34.9563 334.3541 0014276 281.8177  78.0935 15.20439724363027
CYGFM04                 
1 41885U 16078B   23185.79655302  .00013056  00000+0  57186-3 0  9998
2 41885  34.9493 321.4596 0012810 301.0533  58.8923 15.21139170363149
CYGFM02                 
1 41886U 16078C   23185.77736611  .00005171  00000+0  22782-3 0  9993
2 41886  34.9591 323.9096 0013323 294.4277  65.5046 15.21112998363130
CYGFM01                 
1 41887U 16078D   23185.81078496  .00005110  00000+0  23102-3 0  9999
2 41887  34.9534 337.4812 0014659 280.7438  79.1625 15.20209647362987
CYGFM08                 
1 41888U 16078E   23185.66717729  .00004956  00000+0  22045-3 0  9994
2 41888  34.9506 329.0787 0013800 293.3165  66.6096 15.20788530363021
CYGFM07                 
1 41890U 16078G   23185.74148046  .00005213  00000+0  22904-3 0  9997
2 41890  34.9517 321.4467 0012308 298.5850  61.3624 15.21212896363136
CYGFM03                 
1 41891U 16078H   23185.68930518  .00005423  00000+0  23942-3 0  9990
2 41891  34.9551 322.5578 0011777 296.0837  63.8664 15.21042253363114
FENGYUN 3D              
1 43010U 17072A   23186.39499826  .00000081  00000+0  59970-4 0  9997
2 43010  98.8623 135.0334 0000418 220.3280 139.7865 14.19178934292082
NOAA 20                 
1 43013U 17073A   23186.37813147  .00000083  00000+0  60266-4 0  9997
2 43013  98.7126 124.5689 0001630  78.6738 281.4622 14.19542948291554
GOES 17                 
1 43226U 18022A   23185.97308360 -.00000089  00000+0  00000+0 0  9991
2 43226   0.0089 262.8705 0002469 205.8706  59.5532  1.00271036 19622
FENGYUN 2H              
1 43491U 18050A   23185.43625814 -.00000123  00000+0  00000+0 0  9992
2 43491   2.1209  90.8629 0003496  66.4134   0.9205  1.00267306 18692
METOP-C                 
1 43689U 18087A   23186.42280370  .00000125  00000+0  77050-4 0  9990
2 43689  98.6822 245.6378 0003097  34.0200 326.1175 14.21497756241716
GEO-KOMPSAT-2A          
1 43823U 18100A   23185.94780580 -.00000342  00000+0  00000+0 0  9998
2 43823   0.0505 188.6643 0002329 268.2593 295.2280  1.00269178 16851
METEOR-M2 2             
1 44387U 19038A   23186.37264180  .00000022  00000+0  28988-4 0  9990
2 44387  98.7765 150.2410 0000420 182.6328 177.4848 14.23790197207897
FENGYUN 3E              
1 49008U 21062A   23186.33628688  .00000010  00000+0  25308-4 0  9998
2 49008  98.7214 187.4871 0001102   4.0479 356.0706 14.19686479103633
GOES 18                 
1 51850U 22021A   23185.96663340  .00000098  00000+0  00000+0 0  9997
2 51850   0.0401 174.2357 0000695 298.9344  20.5092  1.00270733  4997
NOAA 21 (JPSS-2)        
1 54234U 22150A   23185.68925304  .00000088  00000+0  62396-4 0  9999
2 54234  98.7167 123.3673 0001406  69.8510 290.2817 14.19559554 33534
METEOSAT-12             
1 54743U 22170C   23185.99319251 -.00000028  00000+0  00000+0 0  9992
2 54743   0.6817 309.9022 0002978 138.0574 188.9431  1.00272162  2160
METEOR-M2 3             
1 57166U 23091A   23182.42844714 -.00000214  00000+0 -74090-4 0  9992
2 57166  98.7642 234.2566 0005083  75.9983  28.8894 14.23831218   561
